{"type":"FeatureCollection","licence":"Data © OpenStreetMap contributors, ODbL 1.0. http://osm.org/copyright","features":[{"type":"Feature","properties":{"place_id":214549397,"osm_type":"relation","osm_id":215739,"place_rank":8,"category":"boundary","type":"administrative","importance":0.6527611915420075,"addresstype":"state","name":"Түркістан облысы","display_name":"Түркістан облысы, Қазақстан","address":{"state":"Түркістан облысы","ISO3166-2-lvl4":"KZ-61","country":"Қазақстан","country_code":"kz"}},"bbox":[65.9987100,40.5686902,70.9433050,46.0005345],"geometry":{"type":"Polygon","coordinates":[[[65.99871,41.937179],[66.5331066,41.8769466],[66.6066796,41.4937904],[66.6454111,41.3476815],[66.7091523,41.1425258],[66.999633,41.1407703],[67.0157229,41.137422],[67.3128864,41.1348194],[67.365089,41.1269889],[67.5695979,41.167376],[67.6852226,41.1708691],[67.7351198,41.1820391],[67.813274,41.1574371],[67.866658,41.1354648],[67.8917581,41.1522328],[67.965538,41.148967],[67.9869643,41.0925451],[67.9876005,41.0814757],[67.9840349,41.0642538],[67.9854095,41.0497219],[67.9825956,41.0304715],[67.9832556,41.0249304],[68.0060803,41.0214638],[68.0063507,41.0229444],[68.0140403,41.0217286],[68.020449,41.0204731],[68.0207334,41.0181878],[68.024134,41.0182401],[68.0238228,41.0246764],[68.0257095,41.0319183],[68.0235787,41.0366555],[68.0245381,41.0380931],[68.0413846,41.0443402],[68.0476857,41.0411751],[68.0515206,41.0417036],[68.0639046,41.0719257],[68.0713468,41.0800842],[68.0800587,41.0815598],[68.0851257,41.0802215],[68.0884853,41.0748515],[68.1012845,41.0678396],[68.105585,41.0664079],[68.112236,41.0669343],[68.1146719,41.0543541],[68.1187576,41.0470141],[68.1268351,41.0445728],[68.1274869,41.0384463],[68.1269646,41.0323068],[68.1106679,41.0362753],[68.1084881,41.0342655],[68.088369,41.0307134],[68.0554949,41.009158],[68.0574675,41.0057689],[68.0682371,41.0080315],[68.0822754,41.00131],[68.0836548,40.9977483],[68.0787678,40.9946932],[68.0739917,40.9861296],[68.0879438,40.970089],[68.0843864,40.9661112],[68.0841421,40.9636152],[68.0756904,40.9605695],[68.0821037,40.9529451],[68.0750588,40.9496378],[68.0715542,40.9533195],[68.0664397,40.9504668],[68.0631195,40.9456178],[68.0841819,40.9418051],[68.0913757,40.9419848],[68.0963611,40.9363417],[68.0886793,40.9256102],[68.0810798,40.9232822],[68.0731381,40.9246573],[68.0724692,40.9167626],[68.0547383,40.9126813],[68.0492643,40.90872],[68.0399449,40.907608],[68.0343231,40.9037167],[68.033011,40.9009854],[68.0286299,40.9001473],[68.0125659,40.8905655],[68.0068325,40.8855794],[68.0086661,40.8803174],[68.0061202,40.8606968],[67.9947898,40.8604444],[67.9922508,40.8586874],[67.9876395,40.8605362],[67.9727715,40.8619193],[67.9715485,40.8512512],[67.9770096,40.8450574],[67.9805188,40.8437239],[67.9816348,40.8405302],[67.9771674,40.8374555],[67.9759062,40.8338471],[67.9768955,40.8317683],[68.0233756,40.8008144],[68.0759617,40.7897307],[68.1586668,40.7250702],[68.2173901,40.6877089],[68.2978267,40.6565404],[68.3710533,40.6174058],[68.41063,40.6149744],[68.4350413,40.5970301],[68.4687376,40.5886428],[68.4815488,40.5710088],[68.490689,40.5746095],[68.4927861,40.572517],[68.5021627,40.5797281],[68.52327,40.5810216],[68.5314074,40.5833732],[68.53531,40.5794628],[68.5631389,40.579168],[68.5816637,40.5686902],[68.6105125,40.577124],[68.6412276,40.599495],[68.6631848,40.5994345],[68.6593426,40.6074107],[68.6546617,40.6122391],[68.6221682,40.6303279],[68.627177,40.6344766],[68.6372227,40.6343686],[68.6424133,40.6381324],[68.642672,40.6457477],[68.6478735,40.6495779],[68.648669,40.6762661],[68.6536221,40.6801352],[68.6512748,40.6803167],[68.6510271,40.682178],[68.6463652,40.6822729],[68.6462731,40.6860637],[68.636264,40.6862907],[68.6437338,40.6917202],[68.643942,40.693719],[68.6350266,40.701011],[68.6341665,40.6976767],[68.6188785,40.6979289],[68.6188952,40.699976],[68.6090885,40.7077666],[68.5839746,40.7088338],[68.5858581,40.7802662],[68.5732237,40.791076],[68.5623114,40.8067459],[68.5624781,40.8415109],[68.5640622,40.8485447],[68.5807307,40.8544784],[68.5849593,40.8571935],[68.5904826,40.8653355],[68.5862958,40.8860464],[68.5767115,40.8972189],[68.5767134,40.906637],[68.5819858,40.9176591],[68.5807481,40.9207361],[68.5827827,40.9245057],[68.573441,40.9278403],[68.5681412,40.9344823],[68.5587409,40.9380039],[68.5552622,40.9425659],[68.550907,40.9442115],[68.548749,40.9469153],[68.5176497,40.9425324],[68.5176372,40.9478158],[68.520271,40.9507571],[68.5159738,40.9524847],[68.5169599,40.9566058],[68.5140221,40.9625016],[68.5101056,40.9612689],[68.5110155,40.9640886],[68.5095929,40.9729009],[68.498328,40.9733263],[68.4972512,40.979136],[68.503887,40.990511],[68.5043805,40.9998842],[68.5221477,41.017327],[68.5265207,41.0203252],[68.5362846,41.0127849],[68.5598099,41.0071611],[68.5708958,41.0116013],[68.5786496,41.0208411],[68.5895394,41.028847],[68.6008293,41.031288],[68.6074495,41.0304659],[68.6099287,41.0271181],[68.6094027,41.0119073],[68.6194277,41.0017683],[68.6307563,40.9968833],[68.6621918,40.9949212],[68.6707084,40.9908633],[68.6739174,40.9873951],[68.6726245,40.9824729],[68.6672065,40.9794356],[68.6563244,40.9760372],[68.6353643,40.973906],[68.6309811,40.9719965],[68.6278389,40.9685034],[68.6269459,40.966142],[68.6285865,40.9605248],[68.636336,40.9490575],[68.6441214,40.9427387],[68.6508882,40.9430278],[68.6657066,40.9572058],[68.6774381,40.9626042],[68.6841746,40.9614108],[68.6841509,40.9640192],[68.6976609,40.9673201],[68.7021562,40.9657628],[68.7045998,40.9669637],[68.7114207,40.9643142],[68.7197258,40.9686272],[68.7285721,40.9696525],[68.7340571,40.9742525],[68.7368399,40.9739162],[68.7364196,40.9758483],[68.7384184,40.9762291],[68.7402864,40.9793952],[68.742145,40.9787182],[68.741594,40.9814893],[68.7440971,40.9800227],[68.749561,40.9816797],[68.7496347,40.9841821],[68.7470569,40.9848519],[68.7489489,40.9873203],[68.7476187,40.9901727],[68.7506542,40.9910892],[68.750953,40.9936765],[68.7546704,40.9939726],[68.7543995,40.9964681],[68.7582196,40.9972647],[68.7525243,41.0031188],[68.7559053,41.0048316],[68.7570168,41.003429],[68.7611357,41.0063611],[68.7567646,41.0078271],[68.7578574,41.0109283],[68.7559053,41.0100755],[68.7548686,41.0119713],[68.7474553,41.0056781],[68.742342,41.00581],[68.7218543,41.028653],[68.7139132,41.0310299],[68.7127459,41.0325835],[68.7136967,41.0359296],[68.7219509,41.0502579],[68.7680311,41.0889873],[68.7844895,41.0993496],[68.8032671,41.1154382],[68.815332,41.1208581],[68.8365672,41.1338692],[68.8595651,41.1429563],[68.8818154,41.1596052],[68.8958348,41.164243],[68.9117353,41.1720938],[68.9136323,41.1734891],[68.9148244,41.1778291],[68.913899,41.1799822],[68.9154833,41.182323],[68.9319421,41.1827698],[68.9385578,41.1915547],[68.9653453,41.2010845],[68.980547,41.2093969],[68.9863398,41.2106692],[68.9882167,41.2135927],[68.991595,41.2141051],[68.9918852,41.2168343],[68.9973257,41.2250912],[68.9936311,41.2308224],[69.0004072,41.2384608],[69.0114426,41.2276327],[69.0246774,41.2243451],[69.030088,41.2250601],[69.0264699,41.230951],[69.029262,41.2392675],[69.0264337,41.2428602],[69.0210305,41.2459015],[69.0256911,41.250459],[69.0359464,41.2524322],[69.0391874,41.2544685],[69.0405413,41.2640969],[69.0380902,41.2663196],[69.0332334,41.2666706],[69.0170696,41.273414],[69.0182323,41.2763661],[69.0162387,41.2779311],[69.013858,41.2895303],[69.0186939,41.2986477],[69.0266007,41.2981038],[69.0299624,41.3032137],[69.0376495,41.3016472],[69.0394615,41.305415],[69.0455177,41.3100647],[69.04408,41.3159521],[69.0410236,41.3194675],[69.0396461,41.3274296],[69.0468543,41.3481485],[69.0439942,41.3506989],[69.0357283,41.3499137],[69.0251087,41.3513931],[69.0213957,41.355476],[69.040993,41.3660588],[69.0494254,41.3649387],[69.0523703,41.3686746],[69.05939,41.3696335],[69.0602209,41.3715468],[69.0668388,41.3720483],[69.0670807,41.3735119],[69.0789596,41.377052],[69.0886611,41.3685558],[69.0837334,41.3655561],[69.084875,41.3626657],[69.0828015,41.3618455],[69.0826894,41.3598406],[69.0795886,41.3596654],[69.0786043,41.3579453],[69.0922828,41.3569026],[69.0966342,41.3586272],[69.0978157,41.3684709],[69.0997398,41.3699499],[69.0989701,41.3714677],[69.1010502,41.372025],[69.1012802,41.3758783],[69.1030239,41.3766958],[69.1054116,41.3828022],[69.1137554,41.3914744],[69.121956,41.3921261],[69.1275981,41.3889324],[69.1329207,41.392178],[69.1358819,41.3911316],[69.1366651,41.3922906],[69.1491278,41.3934541],[69.1507216,41.3923994],[69.1519282,41.386581],[69.1551348,41.3865743],[69.1610574,41.393894],[69.1670095,41.3948846],[69.1678359,41.3990312],[69.1736109,41.4006795],[69.1754094,41.4029417],[69.1707977,41.4028953],[69.1683642,41.4046827],[69.160423,41.423892],[69.1499641,41.4270933],[69.1493858,41.4317381],[69.1513427,41.4313648],[69.1522853,41.4287627],[69.1542671,41.4300915],[69.1528963,41.431694],[69.156094,41.4329089],[69.1563832,41.4344159],[69.1576629,41.4332862],[69.164882,41.4341165],[69.1671125,41.4353318],[69.1662123,41.438438],[69.1727165,41.4410128],[69.1752899,41.4409653],[69.1756086,41.4365503],[69.1785567,41.437193],[69.1775383,41.4385461],[69.1807591,41.4450481],[69.1858625,41.448375],[69.1845057,41.4507733],[69.186137,41.4526572],[69.19007,41.4515168],[69.1939072,41.4543209],[69.1985293,41.4520026],[69.2024757,41.4554518],[69.2058195,41.4539097],[69.2102074,41.4576397],[69.2223635,41.4595178],[69.2267559,41.4628458],[69.2305774,41.4593477],[69.2348669,41.4586198],[69.2385404,41.4596555],[69.2403686,41.4623248],[69.2445829,41.4622219],[69.2500639,41.4663201],[69.2559563,41.4577322],[69.2624279,41.4526538],[69.2713224,41.4523617],[69.2782747,41.4497643],[69.2814996,41.445768],[69.285235,41.4444449],[69.2866485,41.441638],[69.2893296,41.4408249],[69.2904787,41.4420484],[69.2903812,41.4393561],[69.2929056,41.439737],[69.2917686,41.4381091],[69.2953624,41.4378289],[69.2964633,41.4356221],[69.2973395,41.437433],[69.300807,41.436783],[69.3010195,41.4394763],[69.3031295,41.4383124],[69.3056417,41.4402156],[69.3059857,41.4385465],[69.3140895,41.4400465],[69.313644,41.4415054],[69.3225283,41.4481901],[69.3225012,41.4499225],[69.3271619,41.4496951],[69.3360078,41.456509],[69.3347279,41.4574543],[69.3369806,41.4575126],[69.3375912,41.4591538],[69.3411778,41.458686],[69.342581,41.4604854],[69.3452107,41.4590344],[69.3460698,41.4626633],[69.3547491,41.4675434],[69.3546403,41.4726048],[69.3588259,41.4716172],[69.3599672,41.4695164],[69.3797169,41.4653393],[69.4118225,41.4704701],[69.4112154,41.4684965],[69.4166326,41.46583],[69.4155856,41.4635737],[69.4224692,41.4639237],[69.4240103,41.4623138],[69.4340974,41.461033],[69.440941,41.4634925],[69.4485998,41.4642834],[69.4518324,41.4625103],[69.4568475,41.4645994],[69.4605835,41.467399],[69.4569026,41.4688419],[69.4584546,41.4718404],[69.4542635,41.4881383],[69.4455468,41.489694],[69.4384748,41.4878766],[69.4244003,41.4985192],[69.4003377,41.5032392],[69.3976836,41.507016],[69.4066825,41.524173],[69.4276556,41.5407049],[69.4451213,41.5631621],[69.4525861,41.5659557],[69.4547583,41.5693137],[69.4606169,41.5689458],[69.4679855,41.5626351],[69.4766143,41.558885],[69.4812313,41.5510178],[69.500272,41.5475914],[69.5273934,41.563537],[69.5493264,41.569705],[69.5493102,41.5727063],[69.5377026,41.578318],[69.538887,41.588661],[69.549797,41.591781],[69.551025,41.595237],[69.55706,41.596969],[69.559661,41.599453],[69.560173,41.603553],[69.563911,41.606258],[69.565856,41.614734],[69.571563,41.61716],[69.576469,41.629512],[69.5914444,41.6406874],[69.6075291,41.6484053],[69.6179105,41.6633394],[69.630284,41.6634037],[69.6493967,41.6703651],[69.655014,41.668525],[69.665657,41.670463],[69.668525,41.668655],[69.68116,41.677486],[69.6899153,41.6738429],[69.6912126,41.6751778],[69.697508,41.6740018],[69.705359,41.6780702],[69.712944,41.676876],[69.715408,41.678276],[69.715316,41.683471],[69.7176136,41.6862163],[69.722572,41.686302],[69.7251434,41.6879261],[69.7270584,41.6929244],[69.7373046,41.6985886],[69.7433205,41.699104],[69.7456168,41.7008277],[69.7609352,41.696596],[69.7663435,41.6996013],[69.7739321,41.6965329],[69.7774278,41.6987377],[69.7910587,41.7019229],[69.7921672,41.704576],[69.7994121,41.7079312],[69.804252,41.709053],[69.8128663,41.7081864],[69.8176009,41.7118193],[69.821238,41.7117569],[69.8391215,41.7204589],[69.8478869,41.7204401],[69.858848,41.71733],[69.8660699,41.7106938],[69.874275,41.709762],[69.881111,41.706676],[69.88961,41.707927],[69.894317,41.70676],[69.895683,41.708911],[69.901405,41.7090644],[69.907116,41.7125849],[69.9175419,41.7136868],[69.9225931,41.716344],[69.9219078,41.724602],[69.9247384,41.7265412],[69.9389889,41.7254606],[69.9576833,41.7337735],[69.9606657,41.7415914],[69.957328,41.750328],[69.9581072,41.7517174],[69.9625582,41.7562715],[69.9718329,41.7564904],[69.9753266,41.7583639],[69.9754577,41.7608551],[69.97185,41.7640073],[69.9724112,41.7695887],[69.9795065,41.7710502],[69.9820902,41.7789846],[69.9807822,41.7807866],[69.9895066,41.7852063],[69.9904088,41.7881723],[69.9942403,41.7872534],[69.9998773,41.7886742],[69.9969291,41.7968331],[69.9978305,41.7994447],[69.992466,41.8002885],[69.9992135,41.8063872],[70.0034143,41.806383],[70.002358,41.8039316],[70.0039711,41.8016407],[70.0132094,41.7967804],[70.021427,41.7958594],[70.0213473,41.7915878],[70.0227295,41.790007],[70.0213159,41.7851154],[70.026512,41.785461],[70.034686,41.7810523],[70.0347732,41.7765258],[70.038639,41.777642],[70.0425048,41.7757025],[70.0476811,41.7794791],[70.0513585,41.7796739],[70.0493042,41.7883742],[70.0515464,41.7937817],[70.0509627,41.7993877],[70.0564351,41.8043075],[70.0678206,41.8047016],[70.0769293,41.8086692],[70.078416,41.8120121],[70.0841021,41.8141884],[70.089485,41.8213349],[70.0944192,41.8223118],[70.0961403,41.8278912],[70.1027368,41.8373072],[70.1180431,41.8374564],[70.1202031,41.840566],[70.1355193,41.8443457],[70.1418969,41.842269],[70.1467559,41.8365785],[70.1532136,41.839773],[70.157722,41.8494606],[70.1631904,41.850104],[70.1695923,41.8561358],[70.175865,41.855308],[70.184532,41.864395],[70.1811237,41.8722528],[70.1811115,41.883104],[70.1851207,41.8829842],[70.1970557,41.8872651],[70.194816,41.890876],[70.1989049,41.8997071],[70.1950765,41.9018622],[70.196479,41.904483],[70.2092668,41.9036857],[70.2141592,41.907242],[70.2166968,41.9129532],[70.2204837,41.9132742],[70.2273849,41.9172346],[70.2284232,41.9211902],[70.224708,41.923683],[70.223518,41.928379],[70.2276807,41.9307241],[70.2280452,41.9346252],[70.2397982,41.9394502],[70.2409656,41.9429725],[70.2460428,41.9436367],[70.253494,41.948387],[70.258979,41.9493126],[70.2614384,41.9543202],[70.2680652,41.9520575],[70.27391,41.952903],[70.2812148,41.9567262],[70.28807,41.95787],[70.2910571,41.9624622],[70.304924,41.964206],[70.3088657,41.9681755],[70.316146,41.967956],[70.318183,41.970443],[70.3280758,41.9707474],[70.329078,41.972995],[70.3352504,41.9747055],[70.336853,41.98471],[70.334297,41.986904],[70.330062,41.997066],[70.3327645,42.018194],[70.3312072,42.0220749],[70.3233045,42.0273536],[70.3196471,42.0367939],[70.3248417,42.0404062],[70.3313184,42.0417396],[70.3327817,42.0472487],[70.3509493,42.0507735],[70.3556137,42.0575529],[70.3639988,42.0583912],[70.3722328,42.0643997],[70.3735146,42.0693249],[70.387199,42.071109],[70.392295,42.068416],[70.4008772,42.0694044],[70.4101706,42.074743],[70.4116984,42.0776767],[70.416366,42.078056],[70.4229267,42.0834381],[70.4421228,42.0918238],[70.4543365,42.0856994],[70.459019,42.0849916],[70.4638677,42.0930987],[70.4673652,42.0942754],[70.4692013,42.0977329],[70.474303,42.1013527],[70.4759797,42.1093079],[70.4781094,42.1091852],[70.4909881,42.104713],[70.4947578,42.0996761],[70.5013841,42.0991394],[70.5067618,42.0895299],[70.5132277,42.0880945],[70.5146915,42.0831873],[70.5174176,42.082035],[70.5298086,42.0848941],[70.539596,42.079319],[70.545532,42.073982],[70.5499215,42.0677059],[70.5516285,42.0577653],[70.557518,42.052154],[70.5565337,42.0500207],[70.5585293,42.0430256],[70.5487015,42.0350132],[70.5594286,42.0235126],[70.5765179,42.020431],[70.5870389,42.0101856],[70.592933,42.010227],[70.6065563,42.0068513],[70.612838,42.011329],[70.6249881,42.0152808],[70.6391675,42.0148569],[70.6348112,42.0206135],[70.6364218,42.0269421],[70.6417363,42.0296139],[70.6474307,42.0385854],[70.6515544,42.0414161],[70.652404,42.04816],[70.655462,42.0535849],[70.6557104,42.0613948],[70.6602624,42.0679556],[70.6650687,42.0711033],[70.666168,42.07759],[70.678779,42.088375],[70.6786982,42.0981967],[70.6862945,42.1153936],[70.6871709,42.1210878],[70.6950475,42.1273446],[70.7072412,42.1303181],[70.7078577,42.1337728],[70.7146765,42.1386256],[70.7146294,42.1421132],[70.7258007,42.147815],[70.7262078,42.1505631],[70.7243202,42.1536976],[70.7259915,42.1572588],[70.737571,42.165771],[70.7442266,42.167055],[70.7493646,42.1657782],[70.7526591,42.1700171],[70.7555542,42.1709479],[70.7534779,42.1759635],[70.740956,42.178944],[70.7390937,42.181906],[70.7396884,42.1843885],[70.750926,42.1933048],[70.7613279,42.1918085],[70.7680106,42.1935696],[70.770638,42.200963],[70.7891078,42.2059748],[70.7938434,42.2094529],[70.8172477,42.2032779],[70.8206799,42.200459],[70.8263932,42.1992893],[70.8315575,42.1951906],[70.835952,42.194446],[70.8495564,42.1975891],[70.8545521,42.2079049],[70.8661085,42.2118386],[70.8859077,42.2115888],[70.8886202,42.2136483],[70.8878997,42.2200029],[70.8949183,42.2211041],[70.901512,42.225547],[70.9097941,42.226767],[70.9116922,42.2283672],[70.91056,42.231708],[70.9135866,42.2360437],[70.926506,42.237537],[70.9255008,42.2429313],[70.929588,42.247859],[70.9348015,42.2506472],[70.943305,42.263467],[70.93357,42.269744],[70.9282191,42.2665897],[70.922668,42.267398],[70.917991,42.26271],[70.912269,42.261226],[70.890861,42.263248],[70.890678,42.266483],[70.89521,42.272708],[70.891685,42.281467],[70.882331,42.287853],[70.872177,42.291584],[70.865203,42.299819],[70.86927,42.305019],[70.870162,42.310249],[70.867828,42.315395],[70.868942,42.318496],[70.8508015,42.3256533],[70.8431254,42.3262516],[70.8355999,42.3393361],[70.8236851,42.3432528],[70.8076354,42.3683159],[70.7788714,42.3926207],[70.7934449,42.414204],[70.7870647,42.4387437],[70.7714135,42.450322],[70.7394241,42.45115],[70.7218996,42.4588021],[70.6913746,42.450403],[70.6669005,42.452186],[70.6559164,42.4688016],[70.6530954,42.4846609],[70.6488875,42.4890126],[70.6439346,42.501415],[70.6243028,42.519383],[70.6198641,42.5315884],[70.6060124,42.5393495],[70.5842483,42.548423],[70.5703248,42.5469041],[70.5568439,42.5558784],[70.5413409,42.5865956],[70.5353497,42.588026],[70.5246562,42.5845016],[70.5025796,42.5974158],[70.5183206,42.6023661],[70.5165411,42.6037432],[70.502242,42.6124795],[70.4910307,42.6170791],[70.4459678,42.6480023],[70.4269398,42.648833],[70.4152694,42.6553854],[70.4097411,42.6547685],[70.3905579,42.6702683],[70.3798067,42.6852446],[70.3460155,42.6962187],[70.3231947,42.6930651],[70.3252025,42.6948372],[70.3128972,42.7085144],[70.307322,42.7079797],[70.3030577,42.7146963],[70.2945318,42.7190959],[70.2779175,42.7173733],[70.2380085,42.720595],[70.2365057,42.7302327],[70.2256029,42.7333485],[70.2065763,42.747031],[70.214762,42.7627925],[70.2277258,42.7789276],[70.2344307,42.793725],[70.1938663,42.8111945],[70.2159469,42.8277459],[70.2103022,42.8361658],[70.2095461,42.8418535],[70.2012199,42.8507479],[70.201937,42.85642],[70.2208931,42.8719821],[70.2312931,42.8757635],[70.2512943,42.8779716],[70.2359747,42.8842644],[70.2273291,42.8935616],[70.2248346,42.9006273],[70.2212799,42.9040046],[70.2249219,42.9112307],[70.2239359,42.9172429],[70.2287906,42.9236437],[70.2280706,42.9362036],[70.2246022,42.942854],[70.2145451,42.9441075],[70.1987667,42.9536206],[70.207183,42.9665823],[70.2063978,42.9694122],[70.1947099,42.9735028],[70.1905972,42.9843913],[70.1988087,42.9866864],[70.2038215,42.9912189],[70.1954233,42.9979201],[70.1988685,43.0021165],[70.1982335,43.006532],[70.1859385,42.9981952],[70.1862296,43.0008375],[70.1742042,43.0191257],[70.1445716,43.0282436],[70.1772763,43.0540998],[70.1669215,43.0660214],[70.1727433,43.0686071],[70.1499799,43.0925572],[70.1244905,43.0737649],[70.0638968,43.1169329],[70.0726706,43.129989],[70.0732537,43.1495581],[70.0667626,43.1502361],[70.0623882,43.1479843],[70.0478329,43.1489121],[70.0043516,43.170464],[70.0034573,43.1747042],[70.0089985,43.1819738],[70.0025032,43.1973731],[69.994553,43.2000419],[69.9953178,43.2051478],[70.0002584,43.20498],[69.9896419,43.2125541],[69.9796227,43.2150096],[69.9618451,43.2120431],[69.9530857,43.2078768],[69.942334,43.207093],[69.916942,43.2112931],[69.9090869,43.2232371],[69.9156535,43.2265794],[69.9134283,43.2329948],[69.9047167,43.2295389],[69.8859404,43.2584099],[69.8483792,43.2678994],[69.8418614,43.2616806],[69.8361531,43.2492537],[69.8213852,43.2335625],[69.8212039,43.2267092],[69.8075627,43.2280467],[69.8092942,43.230711],[69.8050796,43.2360939],[69.7892713,43.242667],[69.7816943,43.2436983],[69.7638951,43.2414031],[69.7590938,43.2430672],[69.7310709,43.2593744],[69.7224827,43.2582539],[69.7138445,43.2604625],[69.6729386,43.2608411],[69.6565372,43.2557139],[69.6480755,43.2494951],[69.6345091,43.2502893],[69.6312511,43.263429],[69.6373597,43.2838283],[69.6316023,43.2973735],[69.6266579,43.3032761],[69.620786,43.3059846],[69.5908718,43.3000067],[69.5619571,43.296864],[69.5612888,43.2922323],[69.5398953,43.2984718],[69.5294436,43.3094227],[69.535351,43.3306116],[69.5322841,43.3480559],[69.5280886,43.359369],[69.5269248,43.3696234],[69.5371316,43.390531],[69.5384415,43.3969223],[69.5375925,43.4021487],[69.5424254,43.4119832],[69.5084005,43.4229761],[69.4867267,43.4230052],[69.4830408,43.4212583],[69.4339444,43.4313126],[69.4381609,43.4446136],[69.4449722,43.457121],[69.4504879,43.4637579],[69.4598246,43.465875],[69.4655004,43.4697035],[69.4877992,43.4887723],[69.4916209,43.4956755],[69.5157659,43.5090166],[69.5572584,43.5558766],[69.6007735,43.6421678],[69.6158612,43.6764816],[69.6382409,43.7089972],[69.644635,43.7248878],[69.6638723,43.7422057],[69.680387,43.7634841],[69.6815899,43.7762095],[69.6789792,43.8035681],[69.6797653,43.8200512],[69.6827099,43.8418003],[69.6930101,43.8770999],[69.701683,43.9260755],[69.7144809,43.958754],[69.7336549,43.9874852],[69.706785,44.0272817],[69.7442858,44.068695],[69.7642303,44.0987894],[69.7681796,44.1247948],[69.824794,44.1605552],[69.716991,44.6539121],[69.6984324,44.7111472],[69.6675498,44.8205814],[69.6526666,44.8879803],[69.5925074,44.9559329],[69.538832,45.1548863],[69.4643563,45.3384052],[69.3586385,45.4974416],[69.2915988,45.7014081],[69.2665926,45.7693648],[69.2499637,45.7691513],[69.0671103,45.9998871],[67.1749801,46.0005345],[67.1673235,45.9943513],[67.1794215,45.9746174],[67.1630718,45.9556505],[67.1752524,45.93417],[67.2040159,45.9156157],[67.2413925,45.8992622],[67.2374075,45.8861197],[67.2670875,45.8663852],[67.2713084,45.8561725],[67.278305,45.8472429],[67.2950137,45.8520296],[67.3041178,45.8487998],[67.3148094,45.8341017],[67.318586,45.8209438],[67.317041,45.8157994],[67.3256241,45.8106546],[67.3260505,45.8028913],[67.3326622,45.7986879],[67.3481117,45.7936612],[67.3654495,45.7575031],[67.3615013,45.7525924],[67.3421036,45.7422905],[67.3343788,45.7263548],[67.3359238,45.717007],[67.3189293,45.6975872],[67.2935234,45.6873951],[67.285627,45.6660456],[67.3007011,45.6604873],[67.3004865,45.6550581],[67.2978687,45.6510984],[67.3013877,45.6452483],[67.2979545,45.6437482],[67.2941351,45.6454583],[67.2907018,45.642038],[67.2905302,45.6388575],[67.2871814,45.6375966],[67.289263,45.6340781],[67.2907768,45.6139572],[67.262281,45.5964234],[67.2535263,45.5840504],[67.2567455,45.5716747],[67.2448428,45.5644112],[67.2577094,45.5511054],[67.261766,45.5270755],[67.2597061,45.5143264],[67.2646843,45.5031385],[67.2581611,45.4885788],[67.263826,45.4695613],[67.252668,45.4545113],[67.2390383,45.4434254],[67.2334633,45.4310358],[67.2374603,45.4237648],[67.2454553,45.4211167],[67.2471172,45.4182162],[67.242401,45.4135184],[67.2458704,45.406151],[67.2403349,45.3956379],[67.2200221,45.3874545],[67.2030548,45.3827681],[67.1943031,45.3720864],[67.1832919,45.3675287],[67.1816895,45.3572404],[67.1681668,45.3511988],[67.1669916,45.3348807],[67.1786067,45.3212278],[67.178249,45.3143824],[67.1678994,45.3132397],[67.1720225,45.307036],[67.1679702,45.3038769],[67.1679031,45.3022385],[67.1745469,45.3001464],[67.2170649,45.2718879],[67.325232,45.2223617],[67.3908766,45.1817712],[67.5162139,45.1477684],[67.5063496,45.0483973],[67.5222872,44.8366195],[67.5106155,44.813437],[67.5268494,44.6784637],[67.5259485,44.6491445],[67.5085481,44.4670781],[67.5089868,44.4334332],[67.4874071,44.4218733],[67.4620291,44.3677573],[67.4824026,44.3525567],[67.5593265,44.3120193],[67.5829861,44.2950503],[67.630688,44.3111868],[67.733382,44.271978],[67.7410365,44.2638373],[67.7564211,44.2221459],[67.7865918,44.2033319],[67.8069274,44.166165],[67.886958,44.1322839],[67.9063735,44.1157134],[67.9161977,44.0986458],[67.9580292,44.0783033],[68.0042197,44.0629935],[68.0398472,44.0328341],[68.0603024,44.0264966],[68.0596617,44.0208314],[68.0504789,44.000296],[68.0440638,43.9941428],[68.0263461,43.9624934],[67.9655964,43.9350196],[67.9395133,43.9084753],[67.9216296,43.8864503],[67.9211238,43.8755166],[67.9549507,43.8699847],[67.9792878,43.8024696],[67.9787179,43.7947124],[67.971939,43.7705059],[67.9689158,43.7422662],[67.9714607,43.7369515],[67.9353738,43.7061213],[67.9189823,43.701901],[67.8987807,43.7050127],[67.8837983,43.7288865],[67.8456908,43.7421065],[67.8239247,43.7436641],[67.8263556,43.717891],[67.8382103,43.6392192],[67.828615,43.6196772],[67.8256756,43.5987943],[67.813837,43.5630496],[67.7935492,43.5637907],[67.7341192,43.4801754],[67.7507047,43.4718204],[67.7250358,43.407283],[67.6640552,43.3830742],[67.64952,43.375857],[67.6607342,43.3742045],[67.665413,43.370785],[67.6671744,43.3671422],[67.6655881,43.3572215],[67.6594848,43.3425944],[67.6587455,43.3311174],[67.662363,43.3214425],[67.6691251,43.3181563],[67.6777881,43.3100951],[67.6855212,43.3108034],[67.687522,43.3134004],[67.6867382,43.3168504],[67.6802669,43.3225814],[67.6795099,43.3275251],[67.6792214,43.331367],[67.6818712,43.3378701],[67.6816369,43.3484887],[67.6842326,43.3535089],[67.6933536,43.3627487],[67.7081888,43.3674532],[67.7323527,43.3663784],[67.7424708,43.3631952],[67.7471034,43.3591195],[67.7488643,43.3532648],[67.7466082,43.351374],[67.7414348,43.3517804],[67.7349996,43.3570231],[67.7295559,43.3588318],[67.7225078,43.3582158],[67.7155425,43.3538915],[67.713794,43.3497102],[67.7150738,43.3465642],[67.722194,43.3441391],[67.7292254,43.3384776],[67.7515062,43.3319365],[67.7787438,43.3352947],[67.7935795,43.3292526],[67.7985159,43.3243649],[67.7910468,43.321219],[67.7925322,43.3108991],[67.8012853,43.3003661],[67.8143969,43.2969683],[67.8166591,43.2923499],[67.8090833,43.2871034],[67.7944359,43.2810165],[67.7835473,43.2827],[67.767689,43.2795585],[67.7661525,43.2779888],[67.766388,43.2750404],[67.7720737,43.2731807],[67.7803198,43.2737552],[67.7838531,43.2720309],[67.784837,43.2680556],[67.7820828,43.2601327],[67.7835837,43.256392],[67.7967605,43.2591837],[67.8105649,43.2552838],[67.8264458,43.2565377],[67.8312635,43.2528299],[67.8306842,43.2498995],[67.8185177,43.2429676],[67.7896786,43.2336508],[67.7858805,43.2292733],[67.7865181,43.2250018],[67.7881585,43.2233245],[67.7963339,43.2220713],[67.8146426,43.2280863],[67.8214951,43.2280478],[67.8282947,43.2252139],[67.8337979,43.2184081],[67.8363643,43.217309],[67.845016,43.2167692],[67.8708633,43.2203364],[67.8744676,43.2177737],[67.8750475,43.213288],[67.8616491,43.2027013],[67.8555534,43.1955329],[67.8414847,43.1915093],[67.83607,43.1847614],[67.8282594,43.184558],[67.824912,43.177955],[67.2242762,42.9512452],[67.1242717,42.8985275],[66.5774814,42.577751],[66.1485332,42.3227065],[66.0706756,42.3379411],[66.001937,42.360736],[65.99871,41.937179]],[[69.30185,42.3568243],[69.3030819,42.3636738],[69.3116768,42.3662663],[69.3257108,42.375689],[69.3534791,42.3778363],[69.3641581,42.3769739],[69.3696263,42.3807239],[69.3675509,42.3827537],[69.3706506,42.3816047],[69.3708372,42.3855624],[69.3804888,42.3831043],[69.3906208,42.3982074],[69.3860201,42.3992114],[69.3889007,42.3993255],[69.3856684,42.4060903],[69.3870836,42.4084431],[69.3913654,42.4089914],[69.3868274,42.4112402],[69.3943358,42.4151065],[69.3946899,42.4166273],[69.3992846,42.4171484],[69.4030933,42.4205702],[69.413575,42.4185333],[69.4180796,42.4205105],[69.4222746,42.4169622],[69.4253687,42.4182251],[69.4310755,42.414993],[69.4299493,42.4173854],[69.4308907,42.4196959],[69.4333815,42.4180947],[69.4398967,42.4206217],[69.439198,42.4218167],[69.4407534,42.4234334],[69.4305519,42.4325363],[69.4348829,42.4357191],[69.4482996,42.4399461],[69.456307,42.4442086],[69.4582218,42.4429357],[69.4643086,42.4444696],[69.4627697,42.4468478],[69.4638531,42.4514653],[69.4578149,42.4548463],[69.4569873,42.4619805],[69.4518317,42.4630371],[69.4502091,42.4662035],[69.4627224,42.4729742],[69.4622535,42.4784857],[69.4746153,42.4791949],[69.4881595,42.4767917],[69.4982759,42.4794367],[69.5116083,42.4768726],[69.5311395,42.4785431],[69.5541266,42.4680189],[69.5923241,42.4583418],[69.716843,42.4383553],[69.7211102,42.4336985],[69.7215826,42.4291487],[69.7259076,42.4304095],[69.7307192,42.4264148],[69.7242084,42.4164716],[69.7525241,42.4028071],[69.7600492,42.3971602],[69.7679581,42.3941457],[69.7712945,42.3906316],[69.7779414,42.3902195],[69.7791305,42.3845585],[69.7782964,42.376442],[69.7895473,42.371123],[69.7928561,42.3655256],[69.7976126,42.366697],[69.8004834,42.3654215],[69.8024434,42.3636446],[69.8017791,42.3599643],[69.8063814,42.3610052],[69.8179565,42.355649],[69.8144159,42.3515845],[69.8177867,42.3501225],[69.8138134,42.3474138],[69.8180164,42.346613],[69.8197163,42.3451979],[69.8190438,42.3437068],[69.8239753,42.3401929],[69.827319,42.3406831],[69.8325588,42.3357122],[69.8373923,42.3344722],[69.8404645,42.3341208],[69.8454171,42.3371383],[69.8519983,42.33713],[69.8713076,42.3322938],[69.8759797,42.3249981],[69.8902573,42.3205222],[69.8886612,42.3186249],[69.8815363,42.3194277],[69.8813154,42.3174562],[69.887873,42.3160186],[69.8846299,42.3124491],[69.8856957,42.3113334],[69.8937753,42.3115853],[69.8968725,42.307129],[69.9012993,42.3052121],[69.9002177,42.3034047],[69.9235031,42.2962124],[69.9229585,42.2946866],[69.9263982,42.293565],[69.9299729,42.2878355],[69.9357152,42.2852463],[69.9320513,42.2820376],[69.9321132,42.2789077],[69.9296268,42.2768511],[69.9230862,42.2797058],[69.9197271,42.2768385],[69.914584,42.2781577],[69.9151344,42.2794098],[69.9111205,42.2816969],[69.9089178,42.2781359],[69.9019887,42.2817316],[69.8960368,42.2820618],[69.8884881,42.2844265],[69.8868494,42.2865812],[69.8831924,42.2865394],[69.8797199,42.2848761],[69.8781187,42.280909],[69.8672068,42.2717173],[69.8654835,42.26806],[69.8500705,42.2665355],[69.8461347,42.2641483],[69.8450881,42.2659082],[69.8384305,42.2656262],[69.8381456,42.2628944],[69.8353842,42.2643881],[69.8339055,42.2630249],[69.8348344,42.261393],[69.8329565,42.2602174],[69.8326609,42.2658672],[69.8301415,42.2649142],[69.828825,42.2666768],[69.8260344,42.2668577],[69.8121211,42.2543233],[69.8026611,42.2491248],[69.8093569,42.2459648],[69.8210807,42.2307031],[69.8253375,42.2287227],[69.824888,42.2246721],[69.8264547,42.2210627],[69.8293541,42.2196564],[69.8323522,42.2150671],[69.8374779,42.2138865],[69.836945,42.2103307],[69.8267524,42.2138437],[69.8196057,42.2107395],[69.8130207,42.2124674],[69.81129,42.2047414],[69.8127676,42.2040577],[69.8135487,42.19959],[69.81636,42.2011129],[69.8156152,42.1994287],[69.8176558,42.1956194],[69.8207175,42.1997743],[69.8205301,42.1959728],[69.8248869,42.1995871],[69.8237823,42.1947116],[69.8208652,42.1940365],[69.8223296,42.1925959],[69.8114403,42.1921333],[69.8064239,42.1943121],[69.8025868,42.1929743],[69.7947329,42.2026522],[69.7889749,42.1953929],[69.782134,42.1976221],[69.783813,42.204311],[69.789099,42.2115044],[69.7848625,42.2144526],[69.7779611,42.2083014],[69.7724566,42.2065307],[69.7688267,42.2014816],[69.7610115,42.1975736],[69.7603296,42.19332],[69.7570518,42.191225],[69.7522613,42.2023738],[69.7553326,42.2104671],[69.7539326,42.2107274],[69.7617959,42.2274341],[69.758271,42.2285229],[69.7593563,42.2324361],[69.7575603,42.2313415],[69.7321084,42.2310626],[69.7316309,42.2287094],[69.7217455,42.2297487],[69.7201264,42.2263713],[69.7108882,42.2285666],[69.6967122,42.2063784],[69.6916164,42.1923454],[69.6685156,42.1979866],[69.6583908,42.1988218],[69.6515796,42.1761416],[69.6456611,42.1720225],[69.6537477,42.1744764],[69.6472775,42.1640444],[69.6485247,42.163276],[69.6478245,42.1595611],[69.6542457,42.1597927],[69.6484817,42.1579422],[69.6513922,42.154397],[69.6505784,42.1531902],[69.6410142,42.1613038],[69.6302664,42.1592465],[69.6162307,42.1602065],[69.6088448,42.1457549],[69.6106989,42.1437658],[69.6179557,42.1416877],[69.6200999,42.1370231],[69.6192391,42.1346052],[69.6137336,42.1318591],[69.6118696,42.1278841],[69.6009225,42.1300617],[69.5767688,42.1387947],[69.5709484,42.1388707],[69.5681997,42.13243],[69.557846,42.1310543],[69.5482891,42.1327387],[69.5412813,42.1233023],[69.5376189,42.1090168],[69.5352741,42.1119524],[69.538871,42.1174721],[69.5398526,42.1225816],[69.5384208,42.124159],[69.5400342,42.1278189],[69.5374149,42.1312161],[69.537519,42.1335402],[69.5336721,42.136945],[69.5179271,42.1363657],[69.5133379,42.1240979],[69.4904148,42.1245404],[69.490452,42.1222679],[69.4854587,42.1219312],[69.4858192,42.1246012],[69.4801155,42.1253688],[69.4826129,42.1393353],[69.4776668,42.138672],[69.4754613,42.1462577],[69.4632377,42.1455338],[69.4551271,42.1471379],[69.4410814,42.1545306],[69.4256368,42.1668443],[69.4172479,42.1910217],[69.3955437,42.2201811],[69.3832452,42.2244029],[69.3366739,42.2291629],[69.3701783,42.2494238],[69.3609745,42.2591806],[69.3631971,42.2606778],[69.3532097,42.2789894],[69.3521884,42.3051131],[69.3424821,42.3234403],[69.3367492,42.3169271],[69.3289107,42.3163745],[69.3218403,42.3097597],[69.310134,42.3131224],[69.3131831,42.319191],[69.3112995,42.3231718],[69.3032945,42.3223214],[69.3099456,42.3369507],[69.3191139,42.3490268],[69.3231118,42.3516573],[69.3199146,42.3539505],[69.3133005,42.352321],[69.3128938,42.3556351],[69.3089511,42.3546432],[69.3094383,42.355723],[69.30185,42.3568243]]]}}]}